start=new Date('2023-03-17T00:00:00.000Z').valueOf();
sats=[{"RA_OF_ASC_NODE":"227.2076","LAUNCH_DATE":"2022-03-09","OBJECT_TYPE":"PAYLOAD","CENTER_NAME":"EARTH","MEAN_MOTION_DDOT":"0.0000000000000","ELEMENT_SET_NO":"999","DECAY_DATE":null,"MEAN_ELEMENT_THEORY":"SGP4","MEAN_ANOMALY":"269.5399","SITE":"AFETR","INCLINATION":"53.2152","COUNTRY_CODE":"US","MEAN_MOTION_DOT":"-0.00005465","ARG_OF_PERICENTER":"90.5663","ECCENTRICITY":"0.00006110","REF_FRAME":"TEME","EPHEMERIS_TYPE":"0","MEAN_MOTION":"15.08801695","FILE":"3862592","GP_ID":"228283654","NORAD_CAT_ID":"51977","RCS_SIZE":"LARGE","EPOCH":"2023-03-16T19:53:58.001856","PERIOD":"95.440","BSTAR":"-0.00032588000000","REV_AT_EPOCH":"5695","SEMIMAJOR_AXIS":"6917.997","PERIAPSIS":"539.440","TLE_LINE1":"1 51977U 22025X   23075.82914354 -.00005465  00000-0 -32588-3 0  9994","OBJECT_NAME":"STARLINK-3660","APOAPSIS":"540.285","TLE_LINE2":"2 51977  53.2152 227.2076 0000611  90.5663 269.5399 15.08801695 56953","OBJECT_ID":"2022-025X","TIME_SYSTEM":"UTC","CLASSIFICATION_TYPE":"U"},{"SEMIMAJOR_AXIS":"6917.903","PERIAPSIS":"538.915","REV_AT_EPOCH":"5668","BSTAR":"-0.00009747600000","CLASSIFICATION_TYPE":"U","TIME_SYSTEM":"UTC","TLE_LINE2":"2 51978  53.2156 246.9577 0001232  80.4631 279.6500 15.08832691 56681","OBJECT_ID":"2022-025Y","APOAPSIS":"540.620","OBJECT_NAME":"STARLINK-3666","TLE_LINE1":"1 51978U 22025Y   23075.88615532 -.00001839  00000-0 -97476-4 0  9996","COUNTRY_CODE":"US","MEAN_MOTION_DOT":"-0.00001839","SITE":"AFETR","INCLINATION":"53.2156","MEAN_MOTION_DDOT":"0.0000000000000","CENTER_NAME":"EARTH","ELEMENT_SET_NO":"999","DECAY_DATE":null,"MEAN_ELEMENT_THEORY":"SGP4","MEAN_ANOMALY":"279.6500","LAUNCH_DATE":"2022-03-09","RA_OF_ASC_NODE":"246.9577","OBJECT_TYPE":"PAYLOAD","RCS_SIZE":"LARGE","NORAD_CAT_ID":"51978","GP_ID":"228283906","EPOCH":"2023-03-16T21:16:03.819648","PERIOD":"95.438","FILE":"3862592","EPHEMERIS_TYPE":"0","ECCENTRICITY":"0.00012320","REF_FRAME":"TEME","ARG_OF_PERICENTER":"80.4631","MEAN_MOTION":"15.08832691"},{"PERIAPSIS":"538.972","SEMIMAJOR_AXIS":"6917.904","REV_AT_EPOCH":"5667","BSTAR":"-0.00015252000000","TIME_SYSTEM":"UTC","CLASSIFICATION_TYPE":"U","OBJECT_ID":"2022-025Z","TLE_LINE2":"2 51979  53.2127 247.4793 0001152  84.6568 275.4555 15.08832304 56676","APOAPSIS":"540.566","OBJECT_NAME":"STARLINK-3656","TLE_LINE1":"1 51979U 22025Z   23075.76839270 -.00002714  00000-0 -15252-3 0  9995","COUNTRY_CODE":"US","MEAN_MOTION_DOT":"-0.00002714","INCLINATION":"53.2127","SITE":"AFETR","MEAN_ANOMALY":"275.4555","DECAY_DATE":null,"MEAN_ELEMENT_THEORY":"SGP4","ELEMENT_SET_NO":"999","MEAN_MOTION_DDOT":"0.0000000000000","CENTER_NAME":"EARTH","OBJECT_TYPE":"PAYLOAD","RA_OF_ASC_NODE":"247.4793","LAUNCH_DATE":"2022-03-09","EPOCH":"2023-03-16T18:26:29.129280","PERIOD":"95.438","RCS_SIZE":"LARGE","NORAD_CAT_ID":"51979","GP_ID":"228284655","FILE":"3862592","MEAN_MOTION":"15.08832304","EPHEMERIS_TYPE":"0","ARG_OF_PERICENTER":"84.6568","ECCENTRICITY":"0.00011520","REF_FRAME":"TEME"},{"BSTAR":"0.00007064400000","REV_AT_EPOCH":"5668","SEMIMAJOR_AXIS":"6917.906","PERIAPSIS":"538.736","TLE_LINE1":"1 51980U 22025AA  23075.87879373  .00000836  00000-0  70644-4 0  9995","APOAPSIS":"540.806","OBJECT_NAME":"STARLINK-3649","TLE_LINE2":"2 51980  53.2156 246.9808 0001496  87.2171 272.8992 15.08831585 56688","OBJECT_ID":"2022-025AA","TIME_SYSTEM":"UTC","CLASSIFICATION_TYPE":"U","LAUNCH_DATE":"2022-03-09","RA_OF_ASC_NODE":"246.9808","OBJECT_TYPE":"PAYLOAD","MEAN_MOTION_DDOT":"0.0000000000000","CENTER_NAME":"EARTH","DECAY_DATE":null,"MEAN_ELEMENT_THEORY":"SGP4","MEAN_ANOMALY":"272.8992","ELEMENT_SET_NO":"999","SITE":"AFETR","INCLINATION":"53.2156","COUNTRY_CODE":"US","MEAN_MOTION_DOT":"0.00000836","EPHEMERIS_TYPE":"0","ARG_OF_PERICENTER":"87.2171","ECCENTRICITY":"0.00014960","REF_FRAME":"TEME","MEAN_MOTION":"15.08831585","FILE":"3862592","NORAD_CAT_ID":"51980","RCS_SIZE":"LARGE","GP_ID":"228282905","PERIOD":"95.438","EPOCH":"2023-03-16T21:05:27.778272"},{"MEAN_ANOMALY":"264.7429","DECAY_DATE":null,"ELEMENT_SET_NO":"999","MEAN_ELEMENT_THEORY":"SGP4","MEAN_MOTION_DDOT":"0.0000000000000","CENTER_NAME":"EARTH","OBJECT_TYPE":"PAYLOAD","LAUNCH_DATE":"2022-03-09","RA_OF_ASC_NODE":"247.2115","MEAN_MOTION_DOT":"-0.00002549","COUNTRY_CODE":"US","INCLINATION":"53.2151","SITE":"AFETR","MEAN_MOTION":"15.08831171","EPHEMERIS_TYPE":"0","REF_FRAME":"TEME","ECCENTRICITY":"0.00013930","ARG_OF_PERICENTER":"95.3722","PERIOD":"95.438","EPOCH":"2023-03-16T19:51:16.250688","NORAD_CAT_ID":"51981","RCS_SIZE":"LARGE","GP_ID":"228283155","FILE":"3862592","REV_AT_EPOCH":"5667","BSTAR":"-0.00014213000000","PERIAPSIS":"538.809","SEMIMAJOR_AXIS":"6917.907","APOAPSIS":"540.736","OBJECT_NAME":"STARLINK-3635","TLE_LINE1":"1 51981U 22025AB  23075.82727142 -.00002549  00000-0 -14213-3 0  9991","TIME_SYSTEM":"UTC","CLASSIFICATION_TYPE":"U","OBJECT_ID":"2022-025AB","TLE_LINE2":"2 51981  53.2151 247.2115 0001393  95.3722 264.7429 15.08831171 56672"},{"TIME_SYSTEM":"UTC","CLASSIFICATION_TYPE":"U","OBJECT_ID":"2022-025AC","TLE_LINE2":"2 51982  53.2155 246.9992 0001598  87.4242 272.6933 15.08826803 56687","OBJECT_NAME":"STARLINK-3650","APOAPSIS":"540.891","TLE_LINE1":"1 51982U 22025AC  23075.87511219 -.00001077  00000-0 -49587-4 0  9991","PERIAPSIS":"538.680","SEMIMAJOR_AXIS":"6917.921","REV_AT_EPOCH":"5668","BSTAR":"-0.00004958700000","EPOCH":"2023-03-16T21:00:09.693216","PERIOD":"95.438","GP_ID":"228284405","NORAD_CAT_ID":"51982","RCS_SIZE":"LARGE","FILE":"3862592","MEAN_MOTION":"15.08826803","ARG_OF_PERICENTER":"87.4242","REF_FRAME":"TEME","ECCENTRICITY":"0.00015980","EPHEMERIS_TYPE":"0","MEAN_MOTION_DOT":"-0.00001077","COUNTRY_CODE":"US","INCLINATION":"53.2155","SITE":"AFETR","DECAY_DATE":null,"MEAN_ELEMENT_THEORY":"SGP4","MEAN_ANOMALY":"272.6933","ELEMENT_SET_NO":"999","CENTER_NAME":"EARTH","MEAN_MOTION_DDOT":"0.0000000000000","OBJECT_TYPE":"PAYLOAD","LAUNCH_DATE":"2022-03-09","RA_OF_ASC_NODE":"246.9992"},{"EPOCH":"2023-03-16T21:21:20.895552","PERIOD":"95.438","NORAD_CAT_ID":"51983","RCS_SIZE":"LARGE","GP_ID":"228259974","FILE":"3862579","MEAN_MOTION":"15.08838735","EPHEMERIS_TYPE":"0","REF_FRAME":"TEME","ECCENTRICITY":"0.00012120","ARG_OF_PERICENTER":"98.0579","MEAN_MOTION_DOT":"0.00001405","COUNTRY_CODE":"US","INCLINATION":"53.2150","SITE":"AFETR","DECAY_DATE":null,"MEAN_ELEMENT_THEORY":"SGP4","ELEMENT_SET_NO":"999","MEAN_ANOMALY":"262.0551","MEAN_MOTION_DDOT":"0.0000000000000","CENTER_NAME":"EARTH","OBJECT_TYPE":"PAYLOAD","LAUNCH_DATE":"2022-03-09","RA_OF_ASC_NODE":"246.9313","CLASSIFICATION_TYPE":"U","TIME_SYSTEM":"UTC","OBJECT_ID":"2022-025AD","TLE_LINE2":"2 51983  53.2150 246.9313 0001212  98.0579 262.0551 15.08838735 57805","APOAPSIS":"540.588","OBJECT_NAME":"STARLINK-3655","TLE_LINE1":"1 51983U 22025AD  23075.88982518  .00001405  00000-0  10637-3 0  9993","PERIAPSIS":"538.911","SEMIMAJOR_AXIS":"6917.884","REV_AT_EPOCH":"5780","BSTAR":"0.00010637000000"},{"NORAD_CAT_ID":"51984","RCS_SIZE":"LARGE","GP_ID":"228283405","PERIOD":"95.438","EPOCH":"2023-03-16T20:28:21.982944","FILE":"3862592","EPHEMERIS_TYPE":"0","REF_FRAME":"TEME","ECCENTRICITY":"0.00012270","ARG_OF_PERICENTER":"99.0697","MEAN_MOTION":"15.08830819","MEAN_MOTION_DOT":"0.00004771","COUNTRY_CODE":"US","SITE":"AFETR","INCLINATION":"53.2130","MEAN_MOTION_DDOT":"0.0000000000000","CENTER_NAME":"EARTH","MEAN_ANOMALY":"261.0434","DECAY_DATE":null,"MEAN_ELEMENT_THEORY":"SGP4","ELEMENT_SET_NO":"999","LAUNCH_DATE":"2022-03-09","RA_OF_ASC_NODE":"247.0983","OBJECT_TYPE":"PAYLOAD","CLASSIFICATION_TYPE":"U","TIME_SYSTEM":"UTC","TLE_LINE2":"2 51984  53.2130 247.0983 0001227  99.0697 261.0434 15.08830819 56686","OBJECT_ID":"2022-025AE","APOAPSIS":"540.622","OBJECT_NAME":"STARLINK-3664","TLE_LINE1":"1 51984U 22025AE  23075.85303221  .00004771  00000-0  31769-3 0  9997","SEMIMAJOR_AXIS":"6917.908","PERIAPSIS":"538.925","REV_AT_EPOCH":"5668","BSTAR":"0.00031769000000"},{"TLE_LINE1":"1 51985U 22025AF  23075.88343287  .00003568  00000-0  24221-3 0  9995","APOAPSIS":"540.777","OBJECT_NAME":"STARLINK-3651","TLE_LINE2":"2 51985  53.2142 246.9704 0001471  75.1821 284.9334 15.08835434 56685","OBJECT_ID":"2022-025AF","CLASSIFICATION_TYPE":"U","TIME_SYSTEM":"UTC","BSTAR":"0.00024221000000","REV_AT_EPOCH":"5668","SEMIMAJOR_AXIS":"6917.894","PERIAPSIS":"538.742","EPHEMERIS_TYPE":"0","ECCENTRICITY":"0.00014710","REF_FRAME":"TEME","ARG_OF_PERICENTER":"75.1821","MEAN_MOTION":"15.08835434","FILE":"3862592","RCS_SIZE":"LARGE","NORAD_CAT_ID":"51985","GP_ID":"228283655","EPOCH":"2023-03-16T21:12:08.599968","PERIOD":"95.438","LAUNCH_DATE":"2022-03-09","RA_OF_ASC_NODE":"246.9704","OBJECT_TYPE":"PAYLOAD","MEAN_MOTION_DDOT":"0.0000000000000","CENTER_NAME":"EARTH","MEAN_ANOMALY":"284.9334","DECAY_DATE":null,"MEAN_ELEMENT_THEORY":"SGP4","ELEMENT_SET_NO":"999","SITE":"AFETR","INCLINATION":"53.2142","COUNTRY_CODE":"US","MEAN_MOTION_DOT":"0.00003568"},{"OBJECT_TYPE":"PAYLOAD","LAUNCH_DATE":"2022-03-09","RA_OF_ASC_NODE":"247.1383","DECAY_DATE":null,"ELEMENT_SET_NO":"999","MEAN_ANOMALY":"270.8695","MEAN_ELEMENT_THEORY":"SGP4","CENTER_NAME":"EARTH","MEAN_MOTION_DDOT":"0.0000000000000","INCLINATION":"53.2145","SITE":"AFETR","COUNTRY_CODE":"US","MEAN_MOTION_DOT":"0.00011087","MEAN_MOTION":"15.08848283","REF_FRAME":"TEME","ECCENTRICITY":"0.00011380","ARG_OF_PERICENTER":"89.2428","EPHEMERIS_TYPE":"0","FILE":"3862592","PERIOD":"95.437","EPOCH":"2023-03-16T20:19:08.709312","GP_ID":"228283907","NORAD_CAT_ID":"51986","RCS_SIZE":"LARGE","BSTAR":"0.00071343000000","REV_AT_EPOCH":"5668","PERIAPSIS":"538.933","SEMIMAJOR_AXIS":"6917.855","TLE_LINE1":"1 51986U 22025AG  23075.84662858  .00011087  00000-0  71343-3 0  9992","OBJECT_NAME":"STARLINK-3645","APOAPSIS":"540.507","OBJECT_ID":"2022-025AG","TLE_LINE2":"2 51986  53.2145 247.1383 0001138  89.2428 270.8695 15.08848283 56684","TIME_SYSTEM":"UTC","CLASSIFICATION_TYPE":"U"}];
